INMARSAT 4-F2 (SOUTHPA*)
1 28899U 05044A   26149.52836582 -.00000252  00000+0  00000+0 0  9998
2 28899   5.0725  43.7326 0003259  24.2134 152.8181  1.00272040 75337
GSAT-8 (GAGAN/PRN 127)  
1 37605U 11022A   26149.51591468  .00000095  00000+0  00000+0 0  9990
2 37605   2.0843  82.0475 0002539 228.3352 177.4521  1.00272202 53034
LUCH 5A (SDCM/PRN 140)  
1 37951U 11074B   26149.59839476 -.00000042  00000+0  00000+0 0  9996
2 37951   8.7085  74.0790 0002564 358.9498 196.5918  1.00269448 52869
SES-5 (EGNOS/PRN 136)   
1 38652U 12036A   26149.57728149  .00000045  00000+0  00000+0 0  9998
2 38652   0.0508 308.3589 0002409 112.8526  38.6903  1.00269639 44277
GSAT-10 (GAGAN/PRN 128) 
1 38779U 12051B   26149.52146137 -.00000154  00000+0  00000+0 0  9993
2 38779   0.0353 262.1690 0007945 183.2504  72.3602  1.00273030 49910
LUCH 5B (SDCM/PRN 125)  
1 38977U 12061A   26149.30563508 -.00000133  00000+0  00000+0 0  9992
2 38977  10.4501  50.0697 0001299 151.2782 139.1477  1.00275056 49417
ASTRA 5B (EGNOS/PRN 123)
1 39617U 14011B   26149.58092152  .00000148  00000+0  00000+0 0  9998
2 39617   0.0490 328.9464 0002525  74.7987  75.9783  1.00273082 44485
LUCH 5V (SDCM/PRN 141)  
1 39727U 14023A   26149.30988815 -.00000260  00000+0  00000+0 0  9999
2 39727   5.0887  69.9395 0002583  18.9333   4.2966  1.00271259 44174
GSAT-15 (GAGAN/PRN 139) 
1 41028U 15065A   26149.52354138 -.00000247  00000+0  00000+0 0  9997
2 41028   0.0078  58.9412 0004231   9.9044 100.2029  1.00272190 38611
EUTELSAT 117 WEST B (W*)
1 41589U 16038B   26149.51675891 -.00000001  00000+0  00000+0 0  9999
2 41589   0.0072 144.9603 0000257 102.1273  69.0160  1.00272940 36472
SES-15 (WAAS/PRN 133)   
1 42709U 17026A   26149.51192096  .00000071  00000+0  00000+0 0  9999
2 42709   0.0193 334.1833 0000763  79.5855 248.4040  1.00270008  7240
QZS-2 (QZSS/PRN 194)    
1 42738U 17028A   26147.55590878 -.00000212  00000+0  00000+0 0  9993
2 42738  39.4596 243.4590 0760300 269.0384  73.4616  1.00289116  7414
QZS-3 (QZSS/PRN 199)    
1 42917U 17048A   26149.53013461 -.00000337  00000+0  00000+0 0  9990
2 42917   0.0666 212.7123 0002821 223.2946 128.8956  1.00275396 32076
QZS-4 (QZSS/PRN 195)    
1 42965U 17062A   26148.40701082 -.00000356  00000+0  00000+0 0  9998
2 42965  40.1197 343.7334 0744982 271.4586 275.7556  1.00257511 31603
BEIDOU-3 G1 (PRN 130)   
1 43683U 18085A   26149.62910697 -.00000098  00000+0  00000+0 0  9994
2 43683   2.8230  97.8786 0008407 343.6211 192.1087  1.00271987 27872
EUTELSAT 5 WEST B (EGN*)
1 44624U 19067A   26149.57520148 -.00000031  00000+0  00000+0 0  9990
2 44624   0.0636 349.0104 0003336  77.2502  22.9116  1.00272420 24258
BEIDOU-3 G2 (PRN 144)   
1 45344U 20017A   26149.68472925 -.00000130  00000+0  00000+0 0  9998
2 45344   2.8286  47.0838 0002803  17.7421 148.9193  1.00271287 23078
BEIDOU-3 G3 (PRN 143)   
1 45807U 20040A   26149.59813381 -.00000343  00000+0  00000+0 0  9999
2 45807   2.4036  67.4140 0003391 341.4772 164.0245  1.00266865 21882
GALAXY 30 (WAAS/PRN 135)
1 46114U 20056C   26148.43788892  .00000046  00000+0  00000+0 0  9997
2 46114   0.0026 346.4653 0002491  78.3859 213.7667  1.00270341 21095
QZS-1R (QZSS/PRN 196)   
1 49336U 21096A   26148.67462446 -.00000282  00000+0  00000+0 0  9994
2 49336  37.4240  79.8702 0753473 271.4482 272.7775  1.00262858 16812
QZS-6 (QZSS/PRN 200)    
1 62876U 25023A   26149.52293471 -.00000222  00000+0  00000+0 0  9991
2 62876   0.0113 342.7784 0002573  88.2137  94.8213  1.00270381  4763
